CCSDS_OMM_VERS,COMMENT,CREATION_DATE,ORIGINATOR,OBJECT_NAME,OBJECT_ID,CENTER_NAME,REF_FRAME,TIME_SYSTEM,MEAN_ELEMENT_THEORY,EPOCH,MEAN_MOTION,ECCENTRICITY,INCLINATION,RA_OF_ASC_NODE,ARG_OF_PERICENTER,MEAN_ANOMALY,EPHEMERIS_TYPE,CLASSIFICATION_TYPE,NORAD_CAT_ID,ELEMENT_SET_NO,REV_AT_EPOCH,BSTAR,MEAN_MOTION_DOT,MEAN_MOTION_DDOT,SEMIMAJOR_AXIS,PERIOD,APOAPSIS,PERIAPSIS,OBJECT_TYPE,RCS_SIZE,COUNTRY_CODE,LAUNCH_DATE,SITE,DECAY_DATE,FILE,GP_ID,TLE_LINE0,TLE_LINE1,TLE_LINE2
2,GENERATED VIA SPACE-TRACK.ORG API,2022-07-31T22:36:13,18 SPCS,SKYNET 4D,1998-002A,EARTH,TEME,UTC,SGP4,2022-07-31T14:27:07.679808,0.99153706,0.0007761,11.869,18.9471,101.1556,256.4852,0,U,25134,999,8939,0.0,1.8e-07,0,42481.112,1452.291,36135.946,36070.007,PAYLOAD,LARGE,UK,1998-01-10,AFETR,,3526285,209270581,0 SKYNET 4D,1 25134U 98002A   22212.60217222  .00000018  00000-0  00000+0 0  9993,2 25134  11.8690  18.9471 0007761 101.1556 256.4852  0.99153706 89393
2,GENERATED VIA SPACE-TRACK.ORG API,2022-08-01T02:22:49,18 SPCS,SKYNET 4D,1998-002A,EARTH,TEME,UTC,SGP4,2022-07-31T14:27:07.679808,0.99153706,0.0007761,11.869,18.9471,101.1556,256.4852,0,U,25134,999,8932,0.0,1.8e-07,0,42481.112,1452.291,36135.946,36070.007,PAYLOAD,LARGE,UK,1998-01-10,AFETR,,3526413,209281602,0 SKYNET 4D,1 25134U 98002A   22212.60217222  .00000018  00000-0  00000-0 0  9994,2 25134  11.8690  18.9471 0007761 101.1556 256.4852  0.99153706 89326
2,GENERATED VIA SPACE-TRACK.ORG API,2022-08-01T17:53:45,18 SPCS,SKYNET 4D,1998-002A,EARTH,TEME,UTC,SGP4,2022-08-01T13:19:54.513984,0.99154008,0.000781,11.8696,18.941,101.0838,236.8585,0,U,25134,999,8933,0.0,2e-08,0,42481.025,1452.286,36136.068,36069.713,PAYLOAD,LARGE,UK,1998-01-10,AFETR,,3526929,209318491,0 SKYNET 4D,1 25134U 98002A   22213.55549206  .00000002  00000-0  00000-0 0  9992,2 25134  11.8696  18.9410 0007810 101.0838 236.8585  0.99154008 89334
2,GENERATED VIA SPACE-TRACK.ORG API,2022-08-02T02:11:20,18 SPCS,SKYNET 4D,1998-002A,EARTH,TEME,UTC,SGP4,2022-08-01T15:14:59.594208,0.9915403,0.0007816,11.8696,18.9404,101.0513,265.4196,0,U,25134,999,8934,0.0,1e-08,0,42481.019,1452.286,36136.087,36069.681,PAYLOAD,LARGE,UK,1998-01-10,AFETR,,3527139,209374643,0 SKYNET 4D,1 25134U 98002A   22213.63541197  .00000001  00000-0  00000-0 0  9991,2 25134  11.8696  18.9404 0007816 101.0513 265.4196  0.99154030 89345
2,GENERATED VIA SPACE-TRACK.ORG API,2022-08-02T18:32:48,18 SPCS,SKYNET 4D,1998-002A,EARTH,TEME,UTC,SGP4,2022-08-02T13:32:05.294688,0.9915431,0.0007872,11.8702,18.9346,101.0525,236.8746,0,U,25134,999,8934,0.0,-1.8e-07,0,42480.939,1452.282,36136.245,36069.363,PAYLOAD,LARGE,UK,1998-01-10,AFETR,,3527697,209412658,0 SKYNET 4D,1 25134U 98002A   22214.56395017 -.00000018  00000-0  00000-0 0  9991,2 25134  11.8702  18.9346 0007872 101.0525 236.8746  0.99154310 89347
2,GENERATED VIA SPACE-TRACK.ORG API,2022-08-03T18:00:54,18 SPCS,SKYNET 4D,1998-002A,EARTH,TEME,UTC,SGP4,2022-08-03T09:16:42.718656,0.99154518,0.0007929,11.8707,18.9295,101.117,170.4706,0,U,25134,999,8935,0.0,-3.6e-07,0,42480.88,1452.279,36136.428,36069.062,PAYLOAD,LARGE,UK,1998-01-10,AFETR,,3528364,209478974,0 SKYNET 4D,1 25134U 98002A   22215.38660554 -.00000036  00000-0  00000-0 0  9993,2 25134  11.8707  18.9295 0007929 101.1170 170.4706  0.99154518 89355
2,GENERATED VIA SPACE-TRACK.ORG API,2022-08-03T22:46:11,18 SPCS,SKYNET 4D,1998-002A,EARTH,TEME,UTC,SGP4,2022-08-03T14:43:02.112096,0.99154605,0.0007943,11.8709,18.9281,101.118,251.3629,0,U,25134,999,8942,0.0,-4.2e-07,0,42480.855,1452.277,36136.463,36068.977,PAYLOAD,LARGE,UK,1998-01-10,AFETR,,3528473,209499139,0 SKYNET 4D,1 25134U 98002A   22215.61321889 -.00000042  00000-0  00000+0 0  9990,2 25134  11.8709  18.9281 0007943 101.1180 251.3629  0.99154605 89427
2,GENERATED VIA SPACE-TRACK.ORG API,2022-08-04T05:55:18,18 SPCS,SKYNET 4D,1998-002A,EARTH,TEME,UTC,SGP4,2022-08-03T14:43:02.112096,0.99154605,0.0007943,11.8709,18.9281,101.118,251.3629,0,U,25134,999,8935,0.0,-4.2e-07,0,42480.855,1452.277,36136.463,36068.977,PAYLOAD,LARGE,UK,1998-01-10,AFETR,,3528582,209509424,0 SKYNET 4D,1 25134U 98002A   22215.61321889 -.00000042  00000-0  00000-0 0  9991,2 25134  11.8709  18.9281 0007943 101.1180 251.3629  0.99154605 89359
2,GENERATED VIA SPACE-TRACK.ORG API,2022-08-04T18:15:46,18 SPCS,SKYNET 4D,1998-002A,EARTH,TEME,UTC,SGP4,2022-08-04T13:13:02.569152,0.9915484,0.000801,11.8715,18.9225,101.2789,225.8609,0,U,25134,999,8936,0.0,-6.5e-07,0,42480.788,1452.274,36136.68,36068.626,PAYLOAD,LARGE,UK,1998-01-10,AFETR,,3529060,209544837,0 SKYNET 4D,1 25134U 98002A   22216.55072418 -.00000065  00000-0  00000-0 0  9991,2 25134  11.8715  18.9225 0008010 101.2789 225.8609  0.99154840 89362
2,GENERATED VIA SPACE-TRACK.ORG API,2022-08-05T02:22:11,18 SPCS,SKYNET 4D,1998-002A,EARTH,TEME,UTC,SGP4,2022-08-04T16:31:27.663168,0.99154889,0.000802,11.8716,18.9218,101.2914,275.0351,0,U,25134,999,8937,0.0,-6.9e-07,0,42480.774,1452.273,36136.708,36068.569,PAYLOAD,LARGE,UK,1998-01-10,AFETR,,3529274,209574295,0 SKYNET 4D,1 25134U 98002A   22216.68851462 -.00000069  00000-0  00000-0 0  9993,2 25134  11.8716  18.9218 0008020 101.2914 275.0351  0.99154889 89371
2,GENERATED VIA SPACE-TRACK.ORG API,2022-08-05T17:24:20,18 SPCS,SKYNET 4D,1998-002A,EARTH,TEME,UTC,SGP4,2022-08-05T13:44:50.556768,0.99155088,0.0008082,11.8723,18.9168,101.5485,230.4424,0,U,25134,999,8937,0.0,-9.3e-07,0,42480.717,1452.27,36136.915,36068.249,PAYLOAD,LARGE,UK,1998-01-10,AFETR,,3529733,209609961,0 SKYNET 4D,1 25134U 98002A   22217.57280737 -.00000093  00000-0  00000-0 0  9990,2 25134  11.8723  18.9168 0008082 101.5485 230.4424  0.99155088 89375
2,GENERATED VIA SPACE-TRACK.ORG API,2022-08-05T22:56:12,18 SPCS,SKYNET 4D,1998-002A,EARTH,TEME,UTC,SGP4,2022-08-05T16:36:44.119584,0.99155133,0.0008089,11.8723,18.9162,101.5769,273.0252,0,U,25134,999,8944,0.0,-9.6e-07,0,42480.704,1452.27,36136.932,36068.207,PAYLOAD,LARGE,UK,1998-01-10,AFETR,,3529874,209631645,0 SKYNET 4D,1 25134U 98002A   22217.69217731 -.00000096  00000-0  00000+0 0  9999,2 25134  11.8723  18.9162 0008089 101.5769 273.0252  0.99155133 89442
2,GENERATED VIA SPACE-TRACK.ORG API,2022-08-06T02:25:33,18 SPCS,SKYNET 4D,1998-002A,EARTH,TEME,UTC,SGP4,2022-08-05T16:36:44.119584,0.99155133,0.0008089,11.8723,18.9162,101.5769,273.0252,0,U,25134,999,8938,0.0,-9.6e-07,0,42480.704,1452.27,36136.932,36068.207,PAYLOAD,LARGE,UK,1998-01-10,AFETR,,3530042,209642702,0 SKYNET 4D,1 25134U 98002A   22217.69217731 -.00000096  00000-0  00000-0 0  9990,2 25134  11.8723  18.9162 0008089 101.5769 273.0252  0.99155133 89385
2,GENERATED VIA SPACE-TRACK.ORG API,2022-08-06T18:07:45,18 SPCS,SKYNET 4D,1998-002A,EARTH,TEME,UTC,SGP4,2022-08-06T13:13:13.835712,0.99155305,0.0008146,11.8729,18.9115,101.938,219.1851,0,U,25134,999,8938,0.0,-1.21e-06,0,42480.655,1452.267,36137.125,36067.915,PAYLOAD,LARGE,UK,1998-01-10,AFETR,,3530579,209679733,0 SKYNET 4D,1 25134U 98002A   22218.55085458 -.00000121  00000-0  00000-0 0  9994,2 25134  11.8729  18.9115 0008146 101.9380 219.1851  0.99155305 89383
2,GENERATED VIA SPACE-TRACK.ORG API,2022-08-07T02:22:06,18 SPCS,SKYNET 4D,1998-002A,EARTH,TEME,UTC,SGP4,2022-08-06T14:45:47.645856,0.99155328,0.0008148,11.873,18.9112,101.956,242.1131,0,U,25134,999,8938,0.0,-1.23e-06,0,42480.648,1452.267,36137.127,36067.9,PAYLOAD,LARGE,UK,1998-01-10,AFETR,,3530813,209711337,0 SKYNET 4D,1 25134U 98002A   22218.61513479 -.00000123  00000-0  00000-0 0  9992,2 25134  11.8730  18.9112 0008148 101.9560 242.1131  0.99155328 89386
2,GENERATED VIA SPACE-TRACK.ORG API,2022-08-07T18:05:53,18 SPCS,SKYNET 4D,1998-002A,EARTH,TEME,UTC,SGP4,2022-08-07T03:01:43.616928,0.99155425,0.0008181,11.8733,18.9085,102.2038,64.2992,0,U,25134,999,8939,0.0,-1.38e-06,0,42480.621,1452.265,36137.239,36067.732,PAYLOAD,LARGE,UK,1998-01-10,AFETR,,3531314,209748308,0 SKYNET 4D,1 25134U 98002A   22219.12619927 -.00000138  00000-0  00000-0 0  9990,2 25134  11.8733  18.9085 0008181 102.2038  64.2992  0.99155425 89396
2,GENERATED VIA SPACE-TRACK.ORG API,2022-08-07T22:46:12,18 SPCS,SKYNET 4D,1998-002A,EARTH,TEME,UTC,SGP4,2022-08-07T16:47:21.274656,0.99155568,0.0008204,11.8737,18.9056,102.5213,268.6514,0,U,25134,999,8946,0.0,-1.55e-06,0,42480.58,1452.263,36137.296,36067.594,PAYLOAD,LARGE,UK,1998-01-10,AFETR,,3531416,209769009,0 SKYNET 4D,1 25134U 98002A   22219.69955179 -.00000155  00000-0  00000+0 0  9992,2 25134  11.8737  18.9056 0008204 102.5213 268.6514  0.99155568 89468
2,GENERATED VIA SPACE-TRACK.ORG API,2022-08-08T02:09:42,18 SPCS,SKYNET 4D,1998-002A,EARTH,TEME,UTC,SGP4,2022-08-07T16:47:21.274656,0.99155568,0.0008204,11.8737,18.9056,102.5213,268.6514,0,U,25134,999,8940,0.0,-1.55e-06,0,42480.58,1452.263,36137.296,36067.594,PAYLOAD,LARGE,UK,1998-01-10,AFETR,,3531552,209778233,0 SKYNET 4D,1 25134U 98002A   22219.69955179 -.00000155  00000-0  00000-0 0  9993,2 25134  11.8737  18.9056 0008204 102.5213 268.6514  0.99155568 89402
2,GENERATED VIA SPACE-TRACK.ORG API,2022-08-08T19:47:26,18 SPCS,SKYNET 4D,1998-002A,EARTH,TEME,UTC,SGP4,2022-08-08T14:21:46.849824,0.99155728,0.0008244,11.8744,18.901,103.0767,228.9791,0,U,25134,999,8940,0.0,-1.82e-06,0,42480.534,1452.261,36137.42,36067.378,PAYLOAD,LARGE,UK,1998-01-10,AFETR,,3532128,209817020,0 SKYNET 4D,1 25134U 98002A   22220.59845891 -.00000182  00000-0  00000-0 0  9993,2 25134  11.8744  18.9010 0008244 103.0767 228.9791  0.99155728 89408
2,GENERATED VIA SPACE-TRACK.ORG API,2022-08-09T02:26:57,18 SPCS,SKYNET 4D,1998-002A,EARTH,TEME,UTC,SGP4,2022-08-08T16:52:43.036032,0.99155764,0.0008242,11.8744,18.9005,103.1394,266.3329,0,U,25134,999,8941,0.0,-1.85e-06,0,42480.524,1452.261,36137.401,36067.376,PAYLOAD,LARGE,UK,1998-01-10,AFETR,,3532305,209846716,0 SKYNET 4D,1 25134U 98002A   22220.70327588 -.00000185  00000-0  00000-0 0  9997,2 25134  11.8744  18.9005 0008242 103.1394 266.3329  0.99155764 89411
